[{"OBJECT_NAME":"ONEWEB-0649","OBJECT_ID":"2023-029S","EPOCH":"2026-03-09T18:17:55.472640","MEAN_MOTION":13.19724735,"ECCENTRICITY":0.00016972,"INCLINATION":87.9229,"RA_OF_ASC_NODE":324.7851,"ARG_OF_PERICENTER":90.7297,"MEAN_ANOMALY":269.403,"EPHEMERIS_TYPE":0,"CLASSIFICATION_TYPE":"U","NORAD_CAT_ID":55812,"ELEMENT_SET_NO":999,"REV_AT_EPOCH":14581,"BSTAR":-0.00019671753,"MEAN_MOTION_DOT":-6.6e-7,"MEAN_MOTION_DDOT":0},{"OBJECT_NAME":"DELTA 1 DEB","OBJECT_ID":"1975-052CT","EPOCH":"2026-03-09T16:26:04.833024","MEAN_MOTION":13.32668081,"ECCENTRICITY":0.00741356,"INCLINATION":99.9485,"RA_OF_ASC_NODE":326.6482,"ARG_OF_PERICENTER":263.9439,"MEAN_ANOMALY":151.789,"EPHEMERIS_TYPE":0,"CLASSIFICATION_TYPE":"U","NORAD_CAT_ID":21373,"ELEMENT_SET_NO":999,"REV_AT_EPOCH":69106,"BSTAR":0.00029200061,"MEAN_MOTION_DOT":1.01e-6,"MEAN_MOTION_DDOT":0}]
